[Satellite]
VERSION=1.1
NAME=THYBOLT 1
NICKNAME=THYBOLT 1
TLE1=1 54363U 22158C   22342.44094325  .00011779  00000+0  55988-3 0  9995
TLE2=2 54363  97.4481  77.4839 0011310 213.7659 209.3424 15.19304848  1832
STATUS=0
